{
    "week": 294,
    "satellites": [
        {
            "Name": "BEIDOU-3 M8 (C28)",
            "Line1": "1 43108U 18003B   24333.34702609 -.00000075  00000+0  00000+0 0  9995",
            "Line2": "2 43108  54.8068 321.9492 0005178 267.2867  92.6597  1.86231009 46826",
            "SatelliteNumber": "43108",
            "Classification": "U",
            "LaunchYear": "18",
            "LaunchNumber": "003",
            "PieceOfLaunch": "B",
            "EpochYear": "24",
            "EpochDay": 333.34702609,
            "FirstDerivativeMeanMotion": -7.5e-07,
            "SecondDerivativeMeanMotion": "00000+0",
            "BSTAR": "00000+0",
            "SetNumber": "999",
            "Inclination": 54.8068,
            "RAAN": 321.9492,
            "Eccentricity": 0.0005178,
            "ArgumentOfPerigee": 267.2867,
            "MeanAnomaly": 92.6597,
            "MeanMotion": 1.86231009,
            "RevolutionNumber": "4682"
        },
        {
            "Name": "BEIDOU-3 M4 (C22)",
            "Line1": "1 43207U 18018A   24328.95556500 -.00000021  00000+0  00000+0 0  9990",
            "Line2": "2 43207  56.1550  82.0304 0003749  14.5229 345.4742  1.86231305 46124",
            "SatelliteNumber": "43207",
            "Classification": "U",
            "LaunchYear": "18",
            "LaunchNumber": "018",
            "PieceOfLaunch": "A",
            "EpochYear": "24",
            "EpochDay": 328.955565,
            "FirstDerivativeMeanMotion": -2.1e-07,
            "SecondDerivativeMeanMotion": "00000+0",
            "BSTAR": "00000+0",
            "SetNumber": "999",
            "Inclination": 56.155,
            "RAAN": 82.0304,
            "Eccentricity": 0.0003749,
            "ArgumentOfPerigee": 14.5229,
            "MeanAnomaly": 345.4742,
            "MeanMotion": 1.86231305,
            "RevolutionNumber": "4612"
        },
        {
            "Name": "BEIDOU-3 M3 (C21)",
            "Line1": "1 43208U 18018B   24333.85473887 -.00000038  00000+0  00000+0 0  9990",
            "Line2": "2 43208  56.1581  81.8724 0005843 310.3353  49.5940  1.86231408 46210",
            "SatelliteNumber": "43208",
            "Classification": "U",
            "LaunchYear": "18",
            "LaunchNumber": "018",
            "PieceOfLaunch": "B",
            "EpochYear": "24",
            "EpochDay": 333.85473887,
            "FirstDerivativeMeanMotion": -3.8e-07,
            "SecondDerivativeMeanMotion": "00000+0",
            "BSTAR": "00000+0",
            "SetNumber": "999",
            "Inclination": 56.1581,
            "RAAN": 81.8724,
            "Eccentricity": 0.0005843,
            "ArgumentOfPerigee": 310.3353,
            "MeanAnomaly": 49.594,
            "MeanMotion": 1.86231408,
            "RevolutionNumber": "4621"
        },
        {
            "Name": "BEIDOU-3 M9 (C29)",
            "Line1": "1 43245U 18029A   24333.00062913 -.00000076  00000+0  00000+0 0  9996",
            "Line2": "2 43245  54.6924 319.6682 0002201 270.7053  89.2729  1.86232855 45358",
            "SatelliteNumber": "43245",
            "Classification": "U",
            "LaunchYear": "18",
            "LaunchNumber": "029",
            "PieceOfLaunch": "A",
            "EpochYear": "24",
            "EpochDay": 333.00062913,
            "FirstDerivativeMeanMotion": -7.6e-07,
            "SecondDerivativeMeanMotion": "00000+0",
            "BSTAR": "00000+0",
            "SetNumber": "999",
            "Inclination": 54.6924,
            "RAAN": 319.6682,
            "Eccentricity": 0.0002201,
            "ArgumentOfPerigee": 270.7053,
            "MeanAnomaly": 89.2729,
            "MeanMotion": 1.86232855,
            "RevolutionNumber": "4535"
        },
        {
            "Name": "BEIDOU-3 M10 (C30)",
            "Line1": "1 43246U 18029B   24332.39312906 -.00000077  00000+0  00000+0 0  9999",
            "Line2": "2 43246  54.6902 319.7168 0003881 345.5189  14.4746  1.86232921 45321",
            "SatelliteNumber": "43246",
            "Classification": "U",
            "LaunchYear": "18",
            "LaunchNumber": "029",
            "PieceOfLaunch": "B",
            "EpochYear": "24",
            "EpochDay": 332.39312906,
            "FirstDerivativeMeanMotion": -7.7e-07,
            "SecondDerivativeMeanMotion": "00000+0",
            "BSTAR": "00000+0",
            "SetNumber": "999",
            "Inclination": 54.6902,
            "RAAN": 319.7168,
            "Eccentricity": 0.0003881,
            "ArgumentOfPerigee": 345.5189,
            "MeanAnomaly": 14.4746,
            "MeanMotion": 1.86232921,
            "RevolutionNumber": "4532"
        },
        {
            "Name": "BEIDOU-2 IGSO-7 (C16)",
            "Line1": "1 43539U 18057A   24333.46924421 -.00000015  00000+0  00000+0 0  9997",
            "Line2": "2 43539  55.1511 167.9555 0078032 232.0946 309.2447  1.00261970 23457",
            "SatelliteNumber": "43539",
            "Classification": "U",
            "LaunchYear": "18",
            "LaunchNumber": "057",
            "PieceOfLaunch": "A",
            "EpochYear": "24",
            "EpochDay": 333.46924421,
            "FirstDerivativeMeanMotion": -1.5e-07,
            "SecondDerivativeMeanMotion": "00000+0",
            "BSTAR": "00000+0",
            "SetNumber": "999",
            "Inclination": 55.1511,
            "RAAN": 167.9555,
            "Eccentricity": 0.0078032,
            "ArgumentOfPerigee": 232.0946,
            "MeanAnomaly": 309.2447,
            "MeanMotion": 1.0026197,
            "RevolutionNumber": "2345"
        },
        {
            "Name": "BEIDOU-3 M5 (C23)",
            "Line1": "1 43581U 18062A   24333.15575662  .00000081  00000+0  00000+0 0  9997",
            "Line2": "2 43581  54.1133 201.5538 0002241 335.9132  24.1765  1.86228947 43097",
            "SatelliteNumber": "43581",
            "Classification": "U",
            "LaunchYear": "18",
            "LaunchNumber": "062",
            "PieceOfLaunch": "A",
            "EpochYear": "24",
            "EpochDay": 333.15575662,
            "FirstDerivativeMeanMotion": 8.1e-07,
            "SecondDerivativeMeanMotion": "00000+0",
            "BSTAR": "00000+0",
            "SetNumber": "999",
            "Inclination": 54.1133,
            "RAAN": 201.5538,
            "Eccentricity": 0.0002241,
            "ArgumentOfPerigee": 335.9132,
            "MeanAnomaly": 24.1765,
            "MeanMotion": 1.86228947,
            "RevolutionNumber": "4309"
        },
        {
            "Name": "BEIDOU-3 M6 (C24)",
            "Line1": "1 43582U 18062B   24333.02072441  .00000080  00000+0  00000+0 0  9990",
            "Line2": "2 43582  54.1129 201.5478 0007176  37.7731 322.3768  1.86230010 43090",
            "SatelliteNumber": "43582",
            "Classification": "U",
            "LaunchYear": "18",
            "LaunchNumber": "062",
            "PieceOfLaunch": "B",
            "EpochYear": "24",
            "EpochDay": 333.02072441,
            "FirstDerivativeMeanMotion": 8e-07,
            "SecondDerivativeMeanMotion": "00000+0",
            "BSTAR": "00000+0",
            "SetNumber": "999",
            "Inclination": 54.1129,
            "RAAN": 201.5478,
            "Eccentricity": 0.0007176,
            "ArgumentOfPerigee": 37.7731,
            "MeanAnomaly": 322.3768,
            "MeanMotion": 1.8623001,
            "RevolutionNumber": "4309"
        },
        {
            "Name": "BEIDOU-3 M12 (C26)",
            "Line1": "1 43602U 18067A   24332.95460867  .00000082  00000+0  00000+0 0  9994",
            "Line2": "2 43602  54.2050 200.2461 0008561  33.7794 326.3748  1.86227859 42570",
            "SatelliteNumber": "43602",
            "Classification": "U",
            "LaunchYear": "18",
            "LaunchNumber": "067",
            "PieceOfLaunch": "A",
            "EpochYear": "24",
            "EpochDay": 332.95460867,
            "FirstDerivativeMeanMotion": 8.2e-07,
            "SecondDerivativeMeanMotion": "00000+0",
            "BSTAR": "00000+0",
            "SetNumber": "999",
            "Inclination": 54.205,
            "RAAN": 200.2461,
            "Eccentricity": 0.0008561,
            "ArgumentOfPerigee": 33.7794,
            "MeanAnomaly": 326.3748,
            "MeanMotion": 1.86227859,
            "RevolutionNumber": "4257"
        },
        {
            "Name": "BEIDOU-3 M11 (C25)",
            "Line1": "1 43603U 18067B   24333.08809953  .00000083  00000+0  00000+0 0  9994",
            "Line2": "2 43603  54.2023 200.2064 0005183  29.1933 330.9360  1.86227344 42605",
            "SatelliteNumber": "43603",
            "Classification": "U",
            "LaunchYear": "18",
            "LaunchNumber": "067",
            "PieceOfLaunch": "B",
            "EpochYear": "24",
            "EpochDay": 333.08809953,
            "FirstDerivativeMeanMotion": 8.3e-07,
            "SecondDerivativeMeanMotion": "00000+0",
            "BSTAR": "00000+0",
            "SetNumber": "999",
            "Inclination": 54.2023,
            "RAAN": 200.2064,
            "Eccentricity": 0.0005183,
            "ArgumentOfPerigee": 29.1933,
            "MeanAnomaly": 330.936,
            "MeanMotion": 1.86227344,
            "RevolutionNumber": "4260"
        }
    ]
}